{"type": "FeatureCollection", "features": [ {"type": "Feature", "properties": {"norad_id": 40664, "name": "SKY MEXICO-1", "group": "intelsat", "lat": -0.028109773654854644, "lon": -99.64511143895191, "alt_km": 35775.110496653906, "timestamp": "2025-12-02T17:49:11.693627+00:00", "meta": {"OBJECT_NAME": "SKY MEXICO-1", "OBJECT_ID": "2015-026B", "EPOCH": "2025-12-02T08:16:26.697216", "MEAN_MOTION": 1.00270882, "ECCENTRICITY": 0.0002666, "INCLINATION": 0.0119, "RA_OF_ASC_NODE": 311.2402, "ARG_OF_PERICENTER": 312.9093, "MEAN_ANOMALY": 212.6569, "EPHEMERIS_TYPE": 0, "CLASSIFICATION_TYPE": "U", "NORAD_CAT_ID": 40664, "ELEMENT_SET_NO": 999, "REV_AT_EPOCH": 3848, "BSTAR": 0, "MEAN_MOTION_DOT": -2.14e-06, "MEAN_MOTION_DDOT": 0}, "tle": {"line1": "1 40664U 15026B   25336.34475344 -.00000214  00000+0  00000+0 0  9993", "line2": "2 40664   0.0119 311.2402 0002666 312.9093 212.6569  1.00270882 38485"}}, "geometry": {"type": "Point", "coordinates": [-99.64511143895191, -0.028109773654854644]}}, {"type": "Feature", "properties": {"norad_id": 40874, "name": "INTELSAT 34 (IS-34)", "group": "intelsat", "lat": -0.012812896507326584, "lon": -76.37638077438075, "alt_km": 35787.69954837646, "timestamp": "2025-12-02T17:49:11.693639+00:00", "meta": {"OBJECT_NAME": "INTELSAT 34 (IS-34)", "OBJECT_ID": "2015-039A", "EPOCH": "2025-12-02T08:23:03.564384", "MEAN_MOTION": 1.00270875, "ECCENTRICITY": 6.32e-05, "INCLINATION": 0.016, "RA_OF_ASC_NODE": 296.7802, "ARG_OF_PERICENTER": 227.0125, "MEAN_ANOMALY": 337.9324, "EPHEMERIS_TYPE": 0, "CLASSIFICATION_TYPE": "U", "NORAD_CAT_ID": 40874, "ELEMENT_SET_NO": 999, "REV_AT_EPOCH": 3765, "BSTAR": 0, "MEAN_MOTION_DOT": -2.65e-06, "MEAN_MOTION_DDOT": 0}, "tle": {"line1": "1 40874U 15039A   25336.34934681 -.00000265  00000+0  00000+0 0  9990", "line2": "2 40874   0.0160 296.7802 0000632 227.0125 337.9324  1.00270875 37658"}}, "geometry": {"type": "Point", "coordinates": [-76.37638077438075, -0.012812896507326584]}}, {"type": "Feature", "properties": {"norad_id": 41581, "name": "INTELSAT 31 (IS-31)", "group": "intelsat", "lat": -0.02324356501331762, "lon": -115.93423848691293, "alt_km": 35779.25170486894, "timestamp": "2025-12-02T17:49:11.693651+00:00", "meta": {"OBJECT_NAME": "INTELSAT 31 (IS-31)", "OBJECT_ID": "2016-035A", "EPOCH": "2025-12-02T09:32:38.891040", "MEAN_MOTION": 1.00269687, "ECCENTRICITY": 0.0001905, "INCLINATION": 0.0144, "RA_OF_ASC_NODE": 272.373, "ARG_OF_PERICENTER": 308.7593, "MEAN_ANOMALY": 258.4788, "EPHEMERIS_TYPE": 0, "CLASSIFICATION_TYPE": "U", "NORAD_CAT_ID": 41581, "ELEMENT_SET_NO": 999, "REV_AT_EPOCH": 3471, "BSTAR": 0, "MEAN_MOTION_DOT": -1.3e-06, "MEAN_MOTION_DDOT": 0}, "tle": {"line1": "1 41581U 16035A   25336.39767235 -.00000130  00000+0  00000+0 0  9998", "line2": "2 41581   0.0144 272.3730 0001905 308.7593 258.4788  1.00269687 34710"}}, "geometry": {"type": "Point", "coordinates": [-115.93423848691293, -0.02324356501331762]}}, {"type": "Feature", "properties": {"norad_id": 41747, "name": "INTELSAT 36 (IS-36)", "group": "intelsat", "lat": 0.030871937126342355, "lon": 47.62956043871896, "alt_km": 35786.977469508456, "timestamp": "2025-12-02T17:49:11.693662+00:00", "meta": {"OBJECT_NAME": "INTELSAT 36 (IS-36)", "OBJECT_ID": "2016-053A", "EPOCH": "2025-12-02T02:07:30.066816", "MEAN_MOTION": 1.00267364, "ECCENTRICITY": 0.0001138, "INCLINATION": 0.0112, "RA_OF_ASC_NODE": 345.1762, "ARG_OF_PERICENTER": 336.3829, "MEAN_ANOMALY": 210.0274, "EPHEMERIS_TYPE": 0, "CLASSIFICATION_TYPE": "U", "NORAD_CAT_ID": 41747, "ELEMENT_SET_NO": 999, "REV_AT_EPOCH": 3397, "BSTAR": 0, "MEAN_MOTION_DOT": -3e-08, "MEAN_MOTION_DDOT": 0}, "tle": {"line1": "1 41747U 16053A   25336.08854244 -.00000003  00000+0  00000+0 0  9994", "line2": "2 41747   0.0112 345.1762 0001138 336.3829 210.0274  1.00267364 33971"}}, "geometry": {"type": "Point", "coordinates": [47.62956043871896, 0.030871937126342355]}}, {"type": "Feature", "properties": {"norad_id": 41945, "name": "INTELSAT 32E (IS-32E)", "group": "intelsat", "lat": -0.014999386145022981, "lon": -64.05360215209117, "alt_km": 35786.407266474875, "timestamp": "2025-12-02T17:49:11.693674+00:00", "meta": {"OBJECT_NAME": "INTELSAT 32E (IS-32E)", "OBJECT_ID": "2017-007B", "EPOCH": "2025-12-02T08:26:33.227808", "MEAN_MOTION": 1.00270094, "ECCENTRICITY": 1.01e-05, "INCLINATION": 0.0231, "RA_OF_ASC_NODE": 56.1777, "ARG_OF_PERICENTER": 302.4246, "MEAN_ANOMALY": 156.3298, "EPHEMERIS_TYPE": 0, "CLASSIFICATION_TYPE": "U", "NORAD_CAT_ID": 41945, "ELEMENT_SET_NO": 999, "REV_AT_EPOCH": 3225, "BSTAR": 0, "MEAN_MOTION_DOT": -2.48e-06, "MEAN_MOTION_DDOT": 0}, "tle": {"line1": "1 41945U 17007B   25336.35177347 -.00000248  00000+0  00000+0 0  9997", "line2": "2 41945   0.0231  56.1777 0000101 302.4246 156.3298  1.00270094 32256"}}, "geometry": {"type": "Point", "coordinates": [-64.05360215209117, -0.014999386145022981]}}, {"type": "Feature", "properties": {"norad_id": 42818, "name": "INTELSAT 35E (IS-35E)", "group": "intelsat", "lat": -0.006827384854292992, "lon": -55.341898575128695, "alt_km": 35780.26165583865, "timestamp": "2025-12-02T17:49:11.693685+00:00", "meta": {"OBJECT_NAME": "INTELSAT 35E (IS-35E)", "OBJECT_ID": "2017-041A", "EPOCH": "2025-12-02T08:29:02.990112", "MEAN_MOTION": 1.00271375, "ECCENTRICITY": 0.0002292, "INCLINATION": 0.0169, "RA_OF_ASC_NODE": 315.4787, "ARG_OF_PERICENTER": 297.1604, "MEAN_ANOMALY": 271.6069, "EPHEMERIS_TYPE": 0, "CLASSIFICATION_TYPE": "U", "NORAD_CAT_ID": 42818, "ELEMENT_SET_NO": 999, "REV_AT_EPOCH": 3084, "BSTAR": 0, "MEAN_MOTION_DOT": -2.17e-06, "MEAN_MOTION_DDOT": 0}, "tle": {"line1": "1 42818U 17041A   25336.35350683 -.00000217  00000+0  00000+0 0  9997", "line2": "2 42818   0.0169 315.4787 0002292 297.1604 271.6069  1.00271375 30842"}}, "geometry": {"type": "Point", "coordinates": [-55.341898575128695, -0.006827384854292992]}}, {"type": "Feature", "properties": {"norad_id": 42950, "name": "INTELSAT 37E (IS-37E)", "group": "intelsat", "lat": 0.012138903062516049, "lon": -38.839744687631764, "alt_km": 35782.85180525232, "timestamp": "2025-12-02T17:49:11.693697+00:00", "meta": {"OBJECT_NAME": "INTELSAT 37E (IS-37E)", "OBJECT_ID": "2017-059A", "EPOCH": "2025-12-02T06:51:04.874112", "MEAN_MOTION": 1.00270981, "ECCENTRICITY": 0.0003393, "INCLINATION": 0.0119, "RA_OF_ASC_NODE": 291.7502, "ARG_OF_PERICENTER": 313.3264, "MEAN_ANOMALY": 271.0959, "EPHEMERIS_TYPE": 0, "CLASSIFICATION_TYPE": "U", "NORAD_CAT_ID": 42950, "ELEMENT_SET_NO": 999, "REV_AT_EPOCH": 3009, "BSTAR": 0, "MEAN_MOTION_DOT": -1.2e-06, "MEAN_MOTION_DDOT": 0}, "tle": {"line1": "1 42950U 17059A   25336.28547308 -.00000120  00000+0  00000+0 0  9990", "line2": "2 42950   0.0119 291.7502 0003393 313.3264 271.0959  1.00270981 30092"}}, "geometry": {"type": "Point", "coordinates": [-38.839744687631764, 0.012138903062516049]}}, {"type": "Feature", "properties": {"norad_id": 43632, "name": "AZERSPACE 2 (IS-38)", "group": "intelsat", "lat": 0.019435185770608477, "lon": 24.240543173946165, "alt_km": 35790.88908949894, "timestamp": "2025-12-02T17:49:11.693708+00:00", "meta": {"OBJECT_NAME": "AZERSPACE 2 (IS-38)", "OBJECT_ID": "2018-074A", "EPOCH": "2025-12-02T03:43:33.564576", "MEAN_MOTION": 1.00270954, "ECCENTRICITY": 0.00016795, "INCLINATION": 0.003, "RA_OF_ASC_NODE": 345.5003, "ARG_OF_PERICENTER": 267.9964, "MEAN_ANOMALY": 278.7706, "EPHEMERIS_TYPE": 0, "CLASSIFICATION_TYPE": "U", "NORAD_CAT_ID": 43632, "ELEMENT_SET_NO": 999, "REV_AT_EPOCH": 2647, "BSTAR": 0, "MEAN_MOTION_DOT": 1.57e-06, "MEAN_MOTION_DDOT": 0}, "tle": {"line1": "1 43632U 18074A   25336.15524959  .00000157  00000+0  00000+0 0  9998", "line2": "2 43632   0.0030 345.5003 0001679 267.9964 278.7706  1.00270954 26473"}}, "geometry": {"type": "Point", "coordinates": [24.240543173946165, 0.019435185770608477]}}, {"type": "Feature", "properties": {"norad_id": 43633, "name": "HORIZONS-3E", "group": "intelsat", "lat": -0.02206908793338173, "lon": 148.1322373087981, "alt_km": 35790.5141391121, "timestamp": "2025-12-02T17:49:11.693720+00:00", "meta": {"OBJECT_NAME": "HORIZONS-3E", "OBJECT_ID": "2018-074B", "EPOCH": "2025-12-02T09:32:38.561856", "MEAN_MOTION": 1.00268601, "ECCENTRICITY": 0.0001081, "INCLINATION": 0.0303, "RA_OF_ASC_NODE": 208.778, "ARG_OF_PERICENTER": 80.6678, "MEAN_ANOMALY": 94.2479, "EPHEMERIS_TYPE": 0, "CLASSIFICATION_TYPE": "U", "NORAD_CAT_ID": 43633, "ELEMENT_SET_NO": 999, "REV_AT_EPOCH": 2636, "BSTAR": 0, "MEAN_MOTION_DOT": -1e-07, "MEAN_MOTION_DDOT": 0}, "tle": {"line1": "1 43633U 18074B   25336.39766854 -.00000010  00000+0  00000+0 0  9996", "line2": "2 43633   0.0303 208.7780 0001081  80.6678  94.2479  1.00268601 26360"}}, "geometry": {"type": "Point", "coordinates": [148.1322373087981, -0.02206908793338173]}}, {"type": "Feature", "properties": {"norad_id": 44333, "name": "AT&T T-16", "group": "intelsat", "lat": -0.016214975011706604, "lon": -121.73462660242656, "alt_km": 35786.621638460936, "timestamp": "2025-12-02T17:49:11.693731+00:00", "meta": {"OBJECT_NAME": "AT&T T-16", "OBJECT_ID": "2019-034A", "EPOCH": "2025-12-02T09:32:38.891040", "MEAN_MOTION": 1.00268471, "ECCENTRICITY": 5.47e-05, "INCLINATION": 0.0272, "RA_OF_ASC_NODE": 65.2898, "ARG_OF_PERICENTER": 92.9501, "MEAN_ANOMALY": 315.5745, "EPHEMERIS_TYPE": 0, "CLASSIFICATION_TYPE": "U", "NORAD_CAT_ID": 44333, "ELEMENT_SET_NO": 999, "REV_AT_EPOCH": 2366, "BSTAR": 0, "MEAN_MOTION_DOT": -9.4e-07, "MEAN_MOTION_DDOT": 0}, "tle": {"line1": "1 44333U 19034A   25336.39767235 -.00000094  00000+0  00000+0 0  9997", "line2": "2 44333   0.0272  65.2898 0000547  92.9501 315.5745  1.00268471 23666"}}, "geometry": {"type": "Point", "coordinates": [-121.73462660242656, -0.016214975011706604]}}]}